OBJECT B                
1 51825U 22019B   24314.77287640  .00052577  00000+0  18614-2 0  9997
2 51825  97.4133  24.8070 0013709  87.1709 273.1100 15.28864082149410
